NORAD_CAT_ID,OBJECT_NAME,OBJECT_TYPE,EPOCH,MEAN_MOTION,ECCENTRICITY,INCLINATION,RA_OF_ASC_NODE,ARG_OF_PERICENTER,MEAN_ANOMALY,BSTAR,MEAN_MOTION_DOT,MEAN_MOTION_DDOT,TLE_LINE0,TLE_LINE1,TLE_LINE2,SEMIMAJOR_AXIS,PERIOD,APOGEE,PERIGEE,DECAYED
55399.0,STARLINK-5276,PAYLOAD,2023-09-29 18:00:08,14.98330686,0.0003206,70.0003,153.2694,265.2505,94.8288,0.00015922,1.807e-05,0.0,0 STARLINK-5276,1 55399U 23014J   23272.75010182  .00001807  00000-0  15922-3 0  9999,2 55399  70.0003 153.2694 0003206 265.2505  94.8288 14.98330686 37512,6950.191,96.107,574.284,569.828,0.0
55399.0,STARLINK-5276,PAYLOAD,2023-09-30 02:00:48,14.98332288,0.0003328,70.0,152.4265,266.469,93.6089,0.00018295,2.091e-05,0.0,0 STARLINK-5276,1 55399U 23014J   23273.08389944  .00002091  00000-0  18295-3 0  9993,2 55399  70.0000 152.4265 0003328 266.4690  93.6089 14.98332288 38503,6950.186,96.107,574.364,569.738,0.0
55399.0,STARLINK-5276,PAYLOAD,2023-09-30 18:02:10,14.98332189,0.0002758,70.0017,150.7477,244.6104,115.477,-0.0001134,-1.446e-05,0.0,0 STARLINK-5276,1 55399U 23014J   23273.75150617 -.00001446  00000-0 -11340-3 0  9999,2 55399  70.0017 150.7477 0002758 244.6104 115.4770 14.98332189 37667,6950.186,96.107,573.968,570.134,0.0
55399.0,STARLINK-5276,PAYLOAD,2023-10-01 08:27:22,14.98331989,0.0003024,69.9998,149.2302,275.7525,84.329,-6.8717e-05,-9.13e-06,0.0,0 STARLINK-5276,1 55399U 23014J   23274.35234650 -.00000913  00000-0 -68717-4 0  9995,2 55399  69.9998 149.2302 0003024 275.7525  84.3290 14.98331989 38693,6950.187,96.107,574.153,569.95,0.0
55399.0,STARLINK-5276,PAYLOAD,2023-10-01 18:04:10,14.98334872,0.0003156,69.9998,148.2198,270.3136,89.7662,4.3334e-05,4.24e-06,0.0,0 STARLINK-5276,1 55399U 23014J   23274.75289874  .00000424  00000-0  43334-4 0  9990,2 55399  69.9998 148.2198 0003156 270.3136  89.7662 14.98334872 37819,6950.178,96.107,574.236,569.849,0.0
55399.0,STARLINK-5276,PAYLOAD,2023-10-01 21:16:26,14.98334538,0.0002997,69.9997,147.8832,263.3192,96.7626,4.1428e-05,4.01e-06,0.0,0 STARLINK-5276,1 55399U 23014J   23274.88641837  .00000401  00000-0  41428-4 0  9992,2 55399  69.9997 147.8832 0002997 263.3192  96.7626 14.98334538 38777,6950.179,96.107,574.127,569.961,0.0
55399.0,STARLINK-5276,PAYLOAD,2023-10-02 21:18:28,14.98322446,0.0002712,70.0006,145.3597,263.7365,96.3485,2.9696e-05,2.61e-06,0.0,0 STARLINK-5276,1 55399U 23014J   23275.88782511  .00000261  00000-0  29696-4 0  9995,2 55399  70.0006 145.3597 0002712 263.7365  96.3485 14.98322446 37989,6950.216,96.107,573.966,570.196,0.0
55399.0,STARLINK-5276,PAYLOAD,2023-10-03 08:31:24,14.98324956,0.0002699,70.0002,144.1816,266.7825,93.3025,-2.7749e-05,-4.24e-06,0.0,0 STARLINK-5276,1 55399U 23014J   23276.35514620 -.00000424  00000-0 -27749-4 0  9992,2 55399  70.0002 144.1816 0002699 266.7825  93.3025 14.98324956 38991,6950.208,96.107,573.949,570.198,0.0
55399.0,STARLINK-5276,PAYLOAD,2023-10-03 18:08:12,14.98337842,0.0002794,69.9998,143.1706,264.321,95.763,4.3532e-07,-8.8e-07,0.0,0 STARLINK-5276,1 55399U 23014J   23276.75569524 -.00000088  00000-0  43532-6 0  9994,2 55399  69.9998 143.1706 0002794 264.3210  95.7630 14.98337842 38117,6950.169,96.106,573.976,570.092,0.0
55399.0,STARLINK-5276,PAYLOAD,2023-10-03 19:44:20,14.98338305,0.0003006,69.9986,143.0012,268.2977,91.7838,1.3629e-05,7e-07,0.0,0 STARLINK-5276,1 55399U 23014J   23276.82245428  .00000070  00000-0  13629-4 0  9998,2 55399  69.9986 143.0012 0003006 268.2977  91.7838 14.98338305 39069,6950.167,96.106,574.121,569.943,0.0
55399.0,STARLINK-5276,PAYLOAD,2023-10-04 08:33:25,14.9832755,0.0002421,70.0004,141.6565,265.4672,94.621,-7.2909e-05,-9.63e-06,0.0,0 STARLINK-5276,1 55399U 23014J   23277.35654043 -.00000963  00000-0 -72909-4 0  9993,2 55399  70.0004 141.6565 0002421 265.4672  94.6210 14.98327550 38202,6950.2,96.107,573.748,570.383,0.0
55399.0,STARLINK-5276,PAYLOAD,2023-10-04 21:22:29,14.98325843,0.0002781,69.9992,140.3081,263.2668,96.8174,-1.3537e-05,-2.54e-06,0.0,0 STARLINK-5276,1 55399U 23014J   23277.89061938 -.00000254  00000-0 -13537-4 0  9992,2 55399  69.9992 140.3081 0002781 263.2668  96.8174 14.98325843 39223,6950.206,96.107,574.004,570.138,0.0
55399.0,STARLINK-5276,PAYLOAD,2023-10-05 08:35:26,14.98325165,0.0002682,69.9996,139.1289,267.1247,92.9605,-3.331e-05,-4.9e-06,0.0,0 STARLINK-5276,1 55399U 23014J   23278.35794135 -.00000490  00000-0 -33310-4 0  9999,2 55399  69.9996 139.1289 0002682 267.1247  92.9605 14.98325165 38355,6950.208,96.107,573.937,570.209,0.0
55399.0,STARLINK-5276,PAYLOAD,2023-10-05 21:24:30,14.98334138,0.0002806,69.9992,137.7836,267.6723,92.4115,-0.00010654,-1.364e-05,0.0,0 STARLINK-5276,1 55399U 23014J   23278.89201765 -.00001364  00000-0 -10654-3 0  9996,2 55399  69.9992 137.7836 0002806 267.6723  92.4115 14.98334138 39379,6950.18,96.107,573.995,570.095,0.0
55399.0,STARLINK-5276,PAYLOAD,2023-10-06 00:36:46,14.9833485,0.0002735,69.9993,137.447,263.5338,96.551,-0.00010989,-1.404e-05,0.0,0 STARLINK-5276,1 55399U 23014J   23279.02553669 -.00001404  00000-0 -10989-3 0  9991,2 55399  69.9993 137.4470 0002735 263.5338  96.5510 14.98334850 38452,6950.178,96.107,573.944,570.142,0.0
55399.0,STARLINK-5276,PAYLOAD,2023-10-06 08:37:26,14.98328594,0.0002736,69.9992,136.6052,260.4922,99.5927,-9.3496e-05,-1.208e-05,0.0,0 STARLINK-5276,1 55399U 23014J   23279.35933964 -.00001208  00000-0 -93496-4 0  9994,2 55399  69.9992 136.6052 0002736 260.4922  99.5927 14.98328594 39447,6950.197,96.107,573.964,570.161,0.0
55399.0,STARLINK-5276,PAYLOAD,2023-10-06 18:14:15,14.98323624,0.0002755,69.9991,135.595,265.3189,94.7656,2.579e-05,2.15e-06,0.0,0 STARLINK-5276,1 55399U 23014J   23279.75990109  .00000215  00000-0  25790-4 0  9999,2 55399  69.9991 135.5950 0002755 265.3189  94.7656 14.98323624 38568,6950.213,96.107,573.992,570.163,0.0
55399.0,STARLINK-5276,PAYLOAD,2023-10-06 21:26:31,14.98326368,0.0002845,69.9991,135.2589,266.8712,93.2122,-8.8822e-07,-1.04e-06,0.0,0 STARLINK-5276,1 55399U 23014J   23279.89342065 -.00000104  00000-0 -88822-6 0  9992,2 55399  69.9991 135.2589 0002845 266.8712  93.2122 14.98326368 39528,6950.204,96.107,574.046,570.092,0.0
55399.0,STARLINK-5276,PAYLOAD,2023-10-07 00:38:47,14.98326311,0.0002855,69.9991,134.9223,267.0702,93.013,-1.5798e-06,-1.12e-06,0.0,0 STARLINK-5276,1 55399U 23014J   23280.02694106 -.00000112  00000-0 -15798-5 0  9995,2 55399  69.9991 134.9223 0002855 267.0702  93.0130 14.98326311 39549,6950.204,96.107,574.054,570.085,0.0
55399.0,STARLINK-5276,PAYLOAD,2023-10-07 18:16:16,14.98330087,0.0002857,69.9991,133.0708,267.4844,92.5987,7.4408e-05,7.95e-06,0.0,0 STARLINK-5276,1 55399U 23014J   23280.76129753  .00000795  00000-0  74408-4 0  9994,2 55399  69.9991 133.0708 0002857 267.4844  92.5987 14.98330087 38717,6950.193,96.107,574.043,570.072,0.0
55399.0,STARLINK-5276,PAYLOAD,2023-10-07 21:28:32,14.98333189,0.0002881,69.9989,132.7341,267.7374,92.3455,6.3018e-05,6.59e-06,0.0,0 STARLINK-5276,1 55399U 23014J   23280.89481576  .00000659  00000-0  63018-4 0  9996,2 55399  69.9989 132.7341 0002881 267.7374  92.3455 14.98333189 39671,6950.183,96.107,574.05,570.046,0.0
55399.0,STARLINK-5276,PAYLOAD,2023-10-08 07:05:20,14.98331321,0.0002845,69.9991,131.7241,268.238,91.8453,4.9853e-05,5.02e-06,0.0,0 STARLINK-5276,1 55399U 23014J   23281.29537648  .00000502  00000-0  49853-4 0  9991,2 55399  69.9991 131.7241 0002845 268.2380  91.8453 14.98331321 39730,6950.189,96.107,574.031,570.076,0.0
55399.0,STARLINK-5276,PAYLOAD,2023-10-08 18:18:17,14.98329468,0.0002815,69.9993,130.546,269.1976,90.886,3.9407e-05,3.77e-06,0.0,0 STARLINK-5276,1 55399U 23014J   23281.76269784  .00000377  00000-0  39407-4 0  9990,2 55399  69.9993 130.5460 0002815 269.1976  90.8860 14.98329468 38863,6950.195,96.107,574.016,570.103,0.0
55399.0,STARLINK-5276,PAYLOAD,2023-10-08 21:30:33,14.98329917,0.0002826,69.9992,130.2096,267.7828,92.3008,3.6391e-05,3.41e-06,0.0,0 STARLINK-5276,1 55399U 23014J   23281.89621746  .00000341  00000-0  36391-4 0  9994,2 55399  69.9992 130.2096 0002826 267.7828  92.3008 14.98329917 39823,6950.193,96.107,574.022,570.094,0.0
55399.0,STARLINK-5276,PAYLOAD,2023-10-09 07:07:21,14.98328162,0.0002823,69.9992,129.1995,268.945,91.1386,-1.492e-05,-2.71e-06,0.0,0 STARLINK-5276,1 55399U 23014J   23282.29677969 -.00000271  00000-0 -14920-4 0  9995,2 55399  69.9992 129.1995 0002823 268.9450  91.1386 14.98328162 39882,6950.199,96.107,574.026,570.102,0.0
55399.0,STARLINK-5276,PAYLOAD,2023-10-09 18:20:18,14.98328306,0.0002777,69.9993,128.0213,268.1886,91.8955,-8.9186e-05,-1.157e-05,0.0,0 STARLINK-5276,1 55399U 23014J   23282.76410203 -.00001157  00000-0 -89186-4 0  9993,2 55399  69.9993 128.0213 0002777 268.1886  91.8955 14.98328306 39011,6950.198,96.107,573.993,570.133,0.0
55399.0,STARLINK-5276,PAYLOAD,2023-10-09 21:32:34,14.98328318,0.0002789,69.9992,127.6846,268.5177,91.5662,-8.5825e-05,-1.117e-05,0.0,0 STARLINK-5276,1 55399U 23014J   23282.89762203 -.00001117  00000-0 -85825-4 0  9999,2 55399  69.9992 127.6846 0002789 268.5177  91.5662 14.98328318 39977,6950.198,96.107,574.002,570.125,0.0
55399.0,STARLINK-5276,PAYLOAD,2023-10-10 13:33:54,14.98330363,0.000294,69.9987,126.0013,271.6258,88.4565,1.4255e-05,7.7e-07,0.0,0 STARLINK-5276,1 55399U 23014J   23283.56521786  .00000077  00000-0  14255-4 0  9994,2 55399  69.9987 126.0013 0002940 271.6258  88.4565 14.98330363 40077,6950.192,96.107,574.1,570.013,0.0
55399.0,STARLINK-5276,PAYLOAD,2023-10-10 18:22:18,14.98332131,0.0002938,69.9988,125.4963,271.6058,88.4765,3.2138e-05,2.9e-06,0.0,0 STARLINK-5276,1 55399U 23014J   23283.76549610  .00000290  00000-0  32138-4 0  9999,2 55399  69.9988 125.4963 0002938 271.6058  88.4765 14.98332131 39165,6950.186,96.107,574.093,570.009,0.0
55399.0,STARLINK-5276,PAYLOAD,2023-10-10 21:34:35,14.98332439,0.0002976,69.9988,125.1596,271.3721,88.7097,2.0288e-06,-6.9e-07,0.0,0 STARLINK-5276,1 55399U 23014J   23283.89901652 -.00000069  00000-0  20288-5 0  9990,2 55399  69.9988 125.1596 0002976 271.3721  88.7097 14.98332439 40120,6950.185,96.107,574.119,569.982,0.0
